EUTELSAT 21B            
1 38992U 12062B   25231.89350522  .00000114  00000+0  00000+0 0  9993
2 38992   0.0706 342.7362 0003135 160.7222 168.2871  1.00274731 46801
EUTELSAT 70B            
1 39020U 12069A   25231.90539201 -.00000061  00000+0  00000+0 0  9990
2 39020   0.0670 342.2119 0003649 169.2749 213.4430  1.00273001 46484
EUTELSAT 117 WEST A     
1 39122U 13012A   25231.74350216 -.00000029  00000+0  00000+0 0  9995
2 39122   0.0585 284.6032 0002705 236.4267 318.1414  1.00270406 45412
EUTELSAT 7B             
1 39163U 13022A   25231.89906017  .00000031  00000+0  00000+0 0  9995
2 39163   0.0710 342.4892 0001814  62.1733 254.4566  1.00271718 44939
EXPRESS-AT1             
1 39612U 14010A   25232.18799441  .00000062  00000+0  00000+0 0  9990
2 39612   0.0248 238.2879 0000350 162.6987  51.4422  1.00270086 42034
EXPRESS-AT2             
1 39613U 14010B   25232.27593545 -.00000299  00000+0  00000+0 0  9991
2 39613   0.0114 173.0062 0000201 135.7071 259.3135  1.00271515 41865
EUTELSAT 3B             
1 39773U 14030A   25231.90461256  .00000004  00000+0  00000+0 0  9995
2 39773   0.0664 342.7044 0004296 173.9468 140.5953  1.00273592 41045
EUTELSAT 115 WEST B     
1 40425U 15010B   25232.36823583 -.00000043  00000+0  00000+0 0  9990
2 40425   0.0107 245.7945 0000414 192.3329 268.4695  1.00274865 38418
